OTTER                   
1 62623U 25009Q   26068.72300813  .00012198  00000+0  45151-3 0  9990
2 62623  97.4065 151.3812 0003573 310.7710  49.3219 15.27809545 63722
STARLINK-36045          
1 66811U 25278W   26068.46201342  .00033175  00000+0  12094-2 0  9996
2 66811  43.0003 115.7060 0001866 259.8192 100.2449 15.27586217 15179
